[{"OBJECT_NAME":"TRANSPORTER-12 OBJECT BT","OBJECT_ID":"2025-009BT","EPOCH":"2026-03-09T17:08:24.281088","MEAN_MOTION":15.27872239,"ECCENTRICITY":0.00036816,"INCLINATION":97.4094,"RA_OF_ASC_NODE":151.5992,"ARG_OF_PERICENTER":313.5044,"MEAN_ANOMALY":46.5889,"EPHEMERIS_TYPE":0,"CLASSIFICATION_TYPE":"U","NORAD_CAT_ID":62674,"ELEMENT_SET_NO":999,"REV_AT_EPOCH":12136,"BSTAR":0.000510288,"MEAN_MOTION_DOT":0.00013824,"MEAN_MOTION_DDOT":0},{"OBJECT_NAME":"STARLINK-35598","OBJECT_ID":"2025-263AA","EPOCH":"2026-03-09T03:53:23.535744","MEAN_MOTION":15.27556739,"ECCENTRICITY":0.00020717,"INCLINATION":43.0038,"RA_OF_ASC_NODE":354.0684,"ARG_OF_PERICENTER":272.3623,"MEAN_ANOMALY":87.6991,"EPHEMERIS_TYPE":0,"CLASSIFICATION_TYPE":"U","NORAD_CAT_ID":66509,"ELEMENT_SET_NO":999,"REV_AT_EPOCH":1881,"BSTAR":0.00090979892,"MEAN_MOTION_DOT":0.00024841,"MEAN_MOTION_DDOT":0}]
