TRANSPORTER-12 OBJECT BT
1 62674U 25009BT  26068.71416991  .00013824  00000+0  51029-3 0  9998
2 62674  97.4094 151.5992 0003682 313.5044  46.5889 15.27872239121360
STARLINK-35598          
1 66509U 25263AA  26068.16207796  .00024841  00000+0  90980-3 0  9991
2 66509  43.0038 354.0684 0002071 272.3623  87.6991 15.27556739 18819
